SAUDISAT 1C (SO-50)     
1 27607U 02058C   26201.93815510  .00000570  00000+0  84993-4 0  9998
2 27607  64.5521  24.5545 0074346 256.2283 103.0541 14.83105633269469
SAUDISAT 2              
1 28371U 04025F   26202.23605693  .00000158  00000+0  46405-4 0  9994
2 28371  98.5524 203.1005 0024449 189.3225 170.7521 14.56700415170701
SAUDISAT 3              
1 31118U 07012B   26201.85158084  .00000156  00000+0  33341-4 0  9993
2 31118  98.1470 152.2777 0015843 117.9566 242.3247 14.71442302 32694
PISAT                   
1 41784U 16059B   26201.99682473  .00000603  00000+0  11013-3 0  9991
2 41784  97.8194 200.9997 0030567  97.1522 263.3162 14.69036294524702
FLYING LAPTOP           
1 42831U 17042G   26202.31182274  .00001712  00000+0  13695-3 0  9999
2 42831  97.4843 356.5672 0019312  13.0997 347.0725 15.01335900491575
SALSAT                  
1 46495U 20068K   26202.28424147  .00005612  00000+0  19458-3 0  9991
2 46495  97.8867 207.4380 0009855 171.6754 188.4651 15.30225780320570
