OBJECT_NAME,OBJECT_ID,EPOCH,MEAN_MOTION,ECCENTRICITY,INCLINATION,RA_OF_ASC_NODE,ARG_OF_PERICENTER,MEAN_ANOMALY,EPHEMERIS_TYPE,CLASSIFICATION_TYPE,NORAD_CAT_ID,ELEMENT_SET_NO,REV_AT_EPOCH,BSTAR,MEAN_MOTION_DOT,MEAN_MOTION_DDOT
SAUDISAT 1C (SO-50),2002-058C,2026-07-20T22:30:56.600640,14.83105633,.00743462,64.5521,24.5545,256.2283,103.0541,0,U,27607,999,26946,.84993258E-4,.57E-5,0
SAUDISAT 2,2004-025F,2026-07-21T05:39:55.318752,14.56700415,.0024449,98.5524,203.1005,189.3225,170.7521,0,U,28371,999,17070,.4640459E-4,.158E-5,0
SAUDISAT 3,2007-012B,2026-07-20T20:26:16.584576,14.71442302,.00158436,98.1470,152.2777,117.9566,242.3247,0,U,31118,999,3269,.33340543E-4,.156E-5,0
PISAT,2016-059B,2026-07-20T23:55:25.656672,14.69036294,.00305673,97.8194,200.9997,97.1522,263.3162,0,U,41784,999,52470,.11012707E-3,.603E-5,0
FLYING LAPTOP,2017-042G,2026-07-21T07:29:01.484736,15.01335900,.00193127,97.4843,356.5672,13.0997,347.0725,0,U,42831,999,49157,.13694556E-3,.1712E-4,0
SALSAT,2020-068K,2026-07-21T06:49:18.463008,15.30225780,.00098552,97.8867,207.4380,171.6754,188.4651,0,U,46495,999,32057,.19458409E-3,.5612E-4,0
